SKYKRAFT-1A             
1 55054U 23001AX  26068.71064616  .00008177  00000+0  30069-3 0  9991
2 55054  97.3349 127.6290 0011277 121.5092 238.7251 15.28083228176529
STARLINK-32754          
1 62527U 25004S   26068.46297704  .00030763  00000+0  11224-2 0  9994
2 62527  42.9981 221.1752 0001779 292.6160  67.4503 15.27589937 65470
